SIRION PATHFINDER-2     
1 43759U 18099B   26156.09085588  .00005474  00000+0  30112-3 0  9997
2 43759  97.4254 205.4362 0008178 352.2997   7.8108 15.14436976410795
CORVUS BC4              
1 43767U 18099K   26156.08104939  .00004690  00000+0  27358-3 0  9994
2 43767  97.4066 199.4161 0009376  51.3830 308.8239 15.12392421410577
M2 PATHFINDER           
1 45727U 20037E   26156.27598575  .00003124  00000+0  22671-3 0  9995
2 45727  97.8153 347.3731 0011413 187.5068 172.5988 15.04619981323702
NETSAT-4                
1 46504U 20068U   26156.00294781  .00019726  00000+0  44237-3 0  9993
2 46504  97.8608 163.2689 0005519  25.5578 334.5940 15.43442394313897
NETSAT-3                
1 46505U 20068V   26156.25932791  .00016765  00000+0  39169-3 0  9999
2 46505  97.8658 161.7772 0005824  41.3666 318.8020 15.42249360313848
NETSAT-1                
1 46506U 20068W   26156.26732117  .00012813  00000+0  38749-3 0  9994
2 46506  97.8746 156.2564 0006263  64.7131 295.4759 15.34344565313471
NETSAT-2                
1 46507U 20068X   26156.31835020  .00020807  00000+0  43566-3 0  9993
2 46507  97.8621 163.4614 0004992  58.7254 301.4482 15.45466491313900
GREENCUBE (IO-117)      
1 53109U 22080E   26152.46502029 -.00000003  00000+0  00000+0 0  9996
2 53109  70.1435 303.7143 0008869 293.3663  66.6064  6.42583280 91055
SITRO-AIS 5 (KATYS)     
1 57176U 23091L   26156.22702976  .00011587  00000+0  41092-3 0  9996
2 57176  97.5060 220.0150 0012587 140.5620 219.6539 15.29167663162512
SITRO-AIS 6 (CHIRKIN)   
1 57192U 23091AC  26156.24416051  .00010004  00000+0  39449-3 0  9998
2 57192  97.5069 219.2143 0012814 143.4316 216.7800 15.25696701162467
SITRO-AIS 8 (ANOKHIN)   
1 57193U 23091AD  26156.26476774  .00014417  00000+0  47080-3 0  9991
2 57193  97.5057 221.5938 0011764 136.6187 223.5982 15.31798403162620
SITRO-AIS 7 (FARTUSHNIY)
1 57194U 23091AE  26156.24488664  .00009803  00000+0  39018-3 0  9996
2 57194  97.5067 219.0461 0012636 144.3833 215.8250 15.25390503162453
SITRO-AIS 10 (BURDAEV)  
1 57199U 23091AK  26156.21587921  .00019247  00000+0  51369-3 0  9990
2 57199  97.5080 226.4762 0007974 115.2202 244.9870 15.38136179162929
SITRO-AIS 9 (SHCHUKIN)  
1 57201U 23091AM  26156.23853454  .00018021  00000+0  48856-3 0  9999
2 57201  97.5078 226.2386 0008192 115.3870 244.8224 15.37664426162916
SITRO-AIS 12 (SMIRENNIY)
1 57204U 23091AQ  26156.23140845  .00018249  00000+0  49015-3 0  9995
2 57204  97.5092 226.6912 0007850 110.4954 249.7134 15.37952833162931
SITRO-AIS 11 (SHEFFER)  
1 57208U 23091AU  26156.24808968  .00018669  00000+0  49469-3 0  9996
2 57208  97.5089 226.9473 0007765 110.3954 249.8126 15.38367147162953
SITRO-AIS 25            
1 59066U 24039R   26156.31617567  .00003503  00000+0  27357-3 0  9997
2 59066  95.3907 226.9353 0145098  10.4149 350.0025 14.93443175122952
SITRO-AIS 26            
1 59067U 24039S   26156.31593355  .00003436  00000+0  26960-3 0  9990
2 59067  95.3908 226.8353 0145438  10.9826 349.4516 14.93240083122947
SITRO-AIS 27            
1 59068U 24039T   26156.28950112  .00003502  00000+0  27234-3 0  9994
2 59068  95.3914 227.0833 0144468   9.8035 350.5955 14.93660555122964
SITRO-AIS 28            
1 59071U 24039U   26156.26721404  .00003694  00000+0  28701-3 0  9998
2 59071  95.3912 227.1147 0144278   9.6830 350.7122 14.93692684122961
GRBBETA                 
1 60237U 24128C   26155.74246985  .00004952  00000+0  34080-3 0  9996
2 60237  61.9904 259.9266 0042354 132.1755 228.2947 15.06546882104396
OOV-CUBE (TUBSAT-30)    
1 60240U 24128F   26156.01171044  .00003200  00000+0  24869-3 0  9993
2 60240  61.9954 268.0264 0046139 131.0618 229.4475 15.02717688104282
ROBUSTA-3A (MEDITERRAN*)
1 60243U 24128J   26155.76474441  .00009298  00000+0  54647-3 0  9994
2 60243  61.9867 252.1698 0043122 125.3968 235.1167 15.11508511104540
LASARSAT                
1 62391U 24247Q   26154.92379714  .00036882  00000+0  75515-3 0  9992
2 62391  44.9754 336.7002 0008047 258.6055 101.3931 15.45494859 81266
CROCUBE                 
1 62394U 24247T   26155.77662696  .00038955  00000+0  74814-3 0  9997
2 62394  44.9728 329.4431 0007951 266.3385  93.6596 15.47331526 81421
FORESAIL-1 PRIME        
1 66778U 25276DS  26156.00455479  .00006190  00000+0  30253-3 0  9991
2 66778  97.4202 229.4991 0003563 129.0934 231.0618 15.18588249 28553
KNACKSAT-2              
1 67683U 98067XZ  26156.11067754  .00054547  00000+0  69168-3 0  9998
2 67683  51.6316 355.1703 0010742 163.6532 196.4809 15.58840087 18392
